$$SOE
2460721.500000000, A.D. 2025-Feb-15 00:00:00.0000, -9.448269556791747E+07, -2.612358305379393E+08, 4.147879573800194E+07,
2460728.500000000, A.D. 2025-Feb-22 00:00:00.0000, -8.299545155897634E+07, -2.644143869876616E+08, 4.567647278653587E+07,
2460735.500000000, A.D. 2025-Mar-01 00:00:00.0000, -7.132639961558390E+07, -2.670137858808865E+08, 4.977409239777991E+07,
2460742.500000000, A.D. 2025-Mar-08 00:00:00.0000, -5.950101659179894E+07, -2.690280178107213E+08, 5.376261878526331E+07,
2460749.500000000, A.D. 2025-Mar-15 00:00:00.0000, -4.754508368351932E+07, -2.704520551669446E+08, 5.763318706796696E+07,
2460756.500000000, A.D. 2025-Mar-22 00:00:00.0000, -3.548467176730277E+07, -2.712818599646312E+08, 6.137711063239322E+07,
2460763.500000000, A.D. 2025-Mar-29 00:00:00.0000, -2.334612531787183E+07, -2.715143955821232E+08, 6.498588863508780E+07,
2460770.500000000, A.D. 2025-Apr-05 00:00:00.0000, -1.115604434540741E+07, -2.711476392945154E+08, 6.845121394674364E+07,
2460777.500000000, A.D. 2025-Apr-12 00:00:00.0000, 1.058733960499369E+06, -2.701805955059000E+08, 7.176498179578853E+07,
2460784.500000000, A.D. 2025-Apr-19 00:00:00.0000, 1.327115393961556E+07, -2.686133105519749E+08, 7.491929912719348E+07,
2460791.500000000, A.D. 2025-Apr-26 00:00:00.0000, 2.545396104754222E+07, -2.664468892497860E+08, 7.790649470364669E+07,
2460798.500000000, A.D. 2025-May-03 00:00:00.0000, 3.757972269404612E+07, -2.636835131307218E+08, 8.071913000584574E+07,
2460805.500000000, A.D. 2025-May-10 00:00:00.0000, 4.962085063135701E+07, -2.603264602847716E+08, 8.335001099299419E+07,
2460812.500000000, A.D. 2025-May-17 00:00:00.0000, 6.154962520531012E+07, -2.563801267761418E+08, 8.579220077966240E+07,
2460819.500000000, A.D. 2025-May-24 00:00:00.0000, 7.333822191929154E+07, -2.518500495814346E+08, 8.803903326801164E+07,
2460826.500000000, A.D. 2025-May-31 00:00:00.0000, 8.495874100594071E+07, -2.467429306049969E+08, 9.008412776844341E+07,
2460833.500000000, A.D. 2025-Jun-07 00:00:00.0000, 9.638323989543697E+07, -2.410666603980495E+08, 9.192140477321851E+07,
2460840.500000000, A.D. 2025-Jun-14 00:00:00.0000, 1.075837665258378E+08, -2.348303420489965E+08, 9.354510306706508E+07,
2460847.500000000, A.D. 2025-Jun-21 00:00:00.0000, 1.185323950375434E+08, -2.280443182904626E+08, 9.494979782228154E+07,
2460854.500000000, A.D. 2025-Jun-28 00:00:00.0000, 1.292012673051716E+08, -2.207201998086216E+08, 9.613041957094088E+07,
2460861.500000000, A.D. 2025-Jul-05 00:00:00.0000, 1.395626391004152E+08, -2.128708923150016E+08, 9.708227440052517E+07,
2460868.500000000, A.D. 2025-Jul-12 00:00:00.0000, 1.495889299904513E+08, -2.045106228556646E+08, 9.780106542740847E+07,
2460875.500000000, A.D. 2025-Jul-19 00:00:00.0000, 1.592527774480442E+08, -1.956549655516330E+08, 9.828291547150004E+07,
2460882.500000000, A.D. 2025-Jul-26 00:00:00.0000, 1.685270956605240E+08, -1.863208663961147E+08, 9.852439087498899E+07,
2460889.500000000, A.D. 2025-Aug-02 00:00:00.0000, 1.773851393649208E+08, -1.765266666061440E+08, 9.852252640750881E+07,
2460896.500000000, A.D. 2025-Aug-09 00:00:00.0000, 1.858005729708156E+08, -1.662921240107598E+08, 9.827485117767739E+07,
2460903.500000000, A.D. 2025-Aug-16 00:00:00.0000, 1.937475452548501E+08, -1.556384319496847E+08, 9.777941543429926E+07,
2460910.500000000, A.D. 2025-Aug-23 00:00:00.0000, 2.012007700913972E+08, -1.445882350157364E+08, 9.703481810073034E+07,
2460917.500000000, A.D. 2025-Aug-30 00:00:00.0000, 2.081356136778174E+08, -1.331656402214264E+08, 9.604023492018209E+07,
2460924.500000000, A.D. 2025-Sep-06 00:00:00.0000, 2.145281869052914E+08, -1.213962218383917E+08, 9.479544725003512E+07,
2460931.500000000, A.D. 2025-Sep-13 00:00:00.0000, 2.203554411944073E+08, -1.093070215921713E+08, 9.330087124277675E+07,
2460938.500000000, A.D. 2025-Sep-20 00:00:00.0000, 2.255952709716418E+08, -9.692654500169092E+07, 9.155758672412312E+07,
2460945.500000000, A.D. 2025-Sep-27 00:00:00.0000, 2.302266236562574E+08, -8.428474985575908E+07, 8.956736563728897E+07,
2460952.500000000, A.D. 2025-Oct-04 00:00:00.0000, 2.342296148444166E+08, -7.141302536643277E+07, 8.733269995853123E+07,
2460959.500000000, A.D. 2025-Oct-11 00:00:00.0000, 2.375856478961928E+08, -5.834416200454372E+07, 8.485682867430058E+07,
2460966.500000000, A.D. 2025-Oct-18 00:00:00.0000, 2.402775376525580E+08, -4.511231134826206E+07, 8.214376336081731E+07,
2460973.500000000, A.D. 2025-Oct-25 00:00:00.0000, 2.422896377188024E+08, -3.175293500069669E+07, 7.919831190184374E+07,
2460980.500000000, A.D. 2025-Nov-01 00:00:00.0000, 2.436079704944714E+08, -1.830274165861461E+07, 7.602609985195905E+07,
2460987.500000000, A.D. 2025-Nov-08 00:00:00.0000, 2.442203589613516E+08, -4.799611515661925E+06, 7.263358891620152E+07,
2460994.500000000, A.D. 2025-Nov-15 00:00:00.0000, 2.441165591849346E+08, 8.717492705432039E+06, 6.902809197593954E+07,
2461001.500000000, A.D. 2025-Nov-22 00:00:00.0000, 2.432883925590423E+08, 2.220862896179875E+07, 6.521778406147821E+07,
2461008.500000000, A.D. 2025-Nov-29 00:00:00.0000, 2.417298760834679E+08, 3.563299499829984E+07, 6.121170877961369E+07,
2461015.500000000, A.D. 2025-Dec-06 00:00:00.0000, 2.394373466980729E+08, 4.894906357982085E+07, 5.701977981397809E+07,
2461022.500000000, A.D. 2025-Dec-13 00:00:00.0000, 2.364095782748666E+08, 6.211473060756239E+07, 5.265277661694739E+07,
2461029.500000000, A.D. 2025-Dec-20 00:00:00.0000, 2.326478927715218E+08, 7.508747703039071E+07, 4.812233349441680E+07,
2461036.500000000, A.D. 2025-Dec-27 00:00:00.0000, 2.281562623739193E+08, 8.782454677654822E+07, 4.344092187536658E+07,
2461043.500000000, A.D. 2026-Jan-03 00:00:00.0000, 2.229413990121330E+08, 1.002831394279432E+08, 3.862182539734796E+07,
2461050.500000000, A.D. 2026-Jan-10 00:00:00.0000, 2.170128291790861E+08, 1.124206159737393E+08, 3.367910736688812E+07,
2461057.500000000, A.D. 2026-Jan-17 00:00:00.0000, 2.103829521247797E+08, 1.241947162315668E+08, 2.862757028464422E+07,
2461064.500000000, A.D. 2026-Jan-24 00:00:00.0000, 2.030670794200481E+08, 1.355637862963485E+08, 2.348270726133306E+07,
2461071.500000000, A.D. 2026-Jan-31 00:00:00.0000, 1.950834539645045E+08, 1.464870140065927E+08, 1.826064528282418E+07,
2461078.500000000, A.D. 2026-Feb-07 00:00:00.0000, 1.864532467491218E+08, 1.569246700425657E+08, 1.297808042013583E+07,
2461085.500000000, A.D. 2026-Feb-14 00:00:00.0000, 1.772005301395250E+08, 1.668383520160616E+08, 7.652205222900547E+06,
2461092.500000000, A.D. 2026-Feb-21 00:00:00.0000, 1.673522269135997E+08, 1.761912292397691E+08, 2.300628732986584E+06,
2461099.500000000, A.D. 2026-Feb-28 00:00:00.0000, 1.569380331785344E+08, 1.849482862003414E+08, -3.058710100868247E+06,
2461106.500000000, A.D. 2026-Mar-07 00:00:00.0000, 1.459903127110359E+08, 1.930765595273839E+08, -8.407634815321438E+06,
2461113.500000000, A.D. 2026-Mar-14 00:00:00.0000, 1.345439656274738E+08, 2.005453628447325E+08, -1.372782915537188E+07,
2461120.500000000, A.D. 2026-Mar-21 00:00:00.0000, 1.226362738075542E+08, 2.073264990823987E+08, -1.900093900830020E+07,
2461127.500000000, A.D. 2026-Mar-28 00:00:00.0000, 1.103067221838855E+08, 2.133944580339744E+08, -2.420867711456052E+07,
2461134.500000000, A.D. 2026-Apr-04 00:00:00.0000, 9.759679693582147E+07, 2.187265951141173E+08, -2.933292931578676E+07,
2461141.500000000, A.D. 2026-Apr-11 00:00:00.0000, 8.454976297668925E+07, 2.233032880898196E+08, -3.435586104393336E+07,
2461148.500000000, A.D. 2026-Apr-18 00:00:00.0000, 7.121042340052511E+07, 2.271080692434842E+08, -3.926002263742385E+07,
2461155.500000000, A.D. 2026-Apr-25 00:00:00.0000, 5.762486379618242E+07, 2.301277309416187E+08, -4.402845203707121E+07,
2461162.500000000, A.D. 2026-May-02 00:00:00.0000, 4.384018468095994E+07, 2.323524031052351E+08, -4.864477348824820E+07,
2461169.500000000, A.D. 2026-May-09 00:00:00.0000, 2.990422570064932E+07, 2.337756015594648E+08, -5.309329100265461E+07,
2461176.500000000, A.D. 2026-May-16 00:00:00.0000, 1.586528565647672E+07, 2.343942469311162E+08, -5.735907544656745E+07,
2461183.500000000, A.D. 2026-May-23 00:00:00.0000, 1.771842121891969E+06, 2.342086551727962E+08, -6.142804413587046E+07,
2461190.500000000, A.D. 2026-May-30 00:00:00.0000, -1.232772776499886E+07, 2.332225006311911E+08, -6.528703182448890E+07,
2461197.500000000, A.D. 2026-Jun-06 00:00:00.0000, -2.638542213333257E+07, 2.314427494755564E+08, -6.892385257363430E+07,
2461204.500000000, A.D. 2026-Jun-13 00:00:00.0000, -4.035387790937835E+07, 2.288795652961303E+08, -7.232735227078116E+07,
2461211.500000000, A.D. 2026-Jun-20 00:00:00.0000, -5.418662053884575E+07, 2.255461918640221E+08, -7.548745118974078E+07,
2461218.500000000, A.D. 2026-Jun-27 00:00:00.0000, -6.783829893349822E+07, 2.214588150909812E+08, -7.839517631662056E+07,
2461225.500000000, A.D. 2026-Jul-04 00:00:00.0000, -8.126490339142306E+07, 2.166364060641955E+08, -8.104268354216230E+07,
2461232.500000000, A.D. 2026-Jul-11 00:00:00.0000, -9.442396441870596E+07, 2.111005478756670E+08, -8.342326997418490E+07,
2461239.500000000, A.D. 2026-Jul-18 00:00:00.0000, -1.072747309869821E+08, 2.048752492371861E+08, -8.553137675835195E+07,
2461246.500000000, A.D. 2026-Jul-25 00:00:00.0000, -1.197783272771707E+08, 1.979867478827681E+08, -8.736258293130319E+07,
2461253.500000000, A.D. 2026-Aug-01 00:00:00.0000, -1.318978873711576E+08, 1.904633066705966E+08, -8.891359095342878E+07,
2461260.500000000, A.D. 2026-Aug-08 00:00:00.0000, -1.435986675967888E+08, 1.823350052045342E+08, -9.018220467503996E+07,
2461267.500000000, A.D. 2026-Aug-15 00:00:00.0000, -1.548481364080558E+08, 1.736335301209353E+08, -9.116730053556506E+07,
2461274.500000000, A.D. 2026-Aug-22 00:00:00.0000, -1.656160431968673E+08, 1.643919677524742E+08, -9.186879267091557E+07,
2461281.500000000, A.D. 2026-Aug-29 00:00:00.0000, -1.758744692501230E+08, 1.546446000552131E+08, -9.228759270590451E+07,
2461288.500000000, A.D. 2026-Sep-05 00:00:00.0000, -1.855978598618971E+08, 1.444267029294197E+08, -9.242556552648698E+07,
$$EOE